{"type": "FeatureCollection", "features": [ {"type": "Feature", "properties": {"norad_id": 32289, "name": "YAOGAN-3", "group": "resource", "lat": -15.285801725290085, "lon": -167.68205885662877, "alt_km": 603.5542506049533, "timestamp": "2025-12-13T20:38:50.651397+00:00", "meta": {"OBJECT_NAME": "YAOGAN-3", "OBJECT_ID": "2007-055A", "EPOCH": "2025-12-13T08:29:25.573344", "MEAN_MOTION": 14.89863391, "ECCENTRICITY": 0.00012435, "INCLINATION": 97.8368, "RA_OF_ASC_NODE": 13.9732, "ARG_OF_PERICENTER": 78.3934, "MEAN_ANOMALY": 281.7423, "EPHEMERIS_TYPE": 0, "CLASSIFICATION_TYPE": "U", "NORAD_CAT_ID": 32289, "ELEMENT_SET_NO": 999, "REV_AT_EPOCH": 97818, "BSTAR": 0.00044415608, "MEAN_MOTION_DOT": 4.214e-05, "MEAN_MOTION_DDOT": 0}, "tle": {"line1": "1 32289U 07055A   25347.35376821  .00004214  00000+0  44416-3 0  9999", "line2": "2 32289  97.8368  13.9732 0001243  78.3934 281.7423 14.89863391978188"}}, "geometry": {"type": "Point", "coordinates": [-167.68205885662877, -15.285801725290085]}}, {"type": "Feature", "properties": {"norad_id": 32376, "name": "COSMO-SKYMED 2", "group": "resource", "lat": 79.71731243105813, "lon": 119.39073897637319, "alt_km": 614.0597241572141, "timestamp": "2025-12-13T20:38:50.651423+00:00", "meta": {"OBJECT_NAME": "COSMO-SKYMED 2", "OBJECT_ID": "2007-059A", "EPOCH": "2025-12-13T07:18:38.868192", "MEAN_MOTION": 14.82167811, "ECCENTRICITY": 0.00014996, "INCLINATION": 97.8811, "RA_OF_ASC_NODE": 168.62, "ARG_OF_PERICENTER": 84.0204, "MEAN_ANOMALY": 276.118, "EPHEMERIS_TYPE": 0, "CLASSIFICATION_TYPE": "U", "NORAD_CAT_ID": 32376, "ELEMENT_SET_NO": 999, "REV_AT_EPOCH": 97446, "BSTAR": 0.0001241313, "MEAN_MOTION_DOT": 9.36e-06, "MEAN_MOTION_DDOT": 0}, "tle": {"line1": "1 32376U 07059A   25347.30461653  .00000936  00000+0  12413-3 0  9992", "line2": "2 32376  97.8811 168.6200 0001499  84.0204 276.1180 14.82167811974465"}}, "geometry": {"type": "Point", "coordinates": [119.39073897637319, 79.71731243105813]}}, {"type": "Feature", "properties": {"norad_id": 32382, "name": "RADARSAT-2", "group": "resource", "lat": -2.24153321937844, "lon": 172.09544399107793, "alt_km": 795.121658242203, "timestamp": "2025-12-13T20:38:50.651437+00:00", "meta": {"OBJECT_NAME": "RADARSAT-2", "OBJECT_ID": "2007-061A", "EPOCH": "2025-12-13T08:02:35.868768", "MEAN_MOTION": 14.29982544, "ECCENTRICITY": 0.0001122, "INCLINATION": 98.5803, "RA_OF_ASC_NODE": 351.9165, "ARG_OF_PERICENTER": 85.5926, "MEAN_ANOMALY": 274.5384, "EPHEMERIS_TYPE": 0, "CLASSIFICATION_TYPE": "U", "NORAD_CAT_ID": 32382, "ELEMENT_SET_NO": 999, "REV_AT_EPOCH": 93939, "BSTAR": 0.0001052507, "MEAN_MOTION_DOT": 2.28e-06, "MEAN_MOTION_DDOT": 0}, "tle": {"line1": "1 32382U 07061A   25347.33513737  .00000228  00000+0  10525-3 0  9992", "line2": "2 32382  98.5803 351.9165 0001122  85.5926 274.5384 14.29982544939398"}}, "geometry": {"type": "Point", "coordinates": [172.09544399107793, -2.24153321937844]}}, {"type": "Feature", "properties": {"norad_id": 32783, "name": "CARTOSAT-2A", "group": "resource", "lat": -29.79647287187413, "lon": -146.84915289896355, "alt_km": 645.8957370186836, "timestamp": "2025-12-13T20:38:50.651449+00:00", "meta": {"OBJECT_NAME": "CARTOSAT-2A", "OBJECT_ID": "2008-021A", "EPOCH": "2025-12-13T06:42:37.133280", "MEAN_MOTION": 14.78938692, "ECCENTRICITY": 0.0011818, "INCLINATION": 97.793, "RA_OF_ASC_NODE": 37.0861, "ARG_OF_PERICENTER": 3.0351, "MEAN_ANOMALY": 357.093, "EPHEMERIS_TYPE": 0, "CLASSIFICATION_TYPE": "U", "NORAD_CAT_ID": 32783, "ELEMENT_SET_NO": 999, "REV_AT_EPOCH": 95132, "BSTAR": 0.0001738853, "MEAN_MOTION_DOT": 1.234e-05, "MEAN_MOTION_DDOT": 0}, "tle": {"line1": "1 32783U 08021A   25347.27959645  .00001234  00000+0  17389-3 0  9992", "line2": "2 32783  97.7930  37.0861 0011818   3.0351 357.0930 14.78938692951320"}}, "geometry": {"type": "Point", "coordinates": [-146.84915289896355, -29.79647287187413]}}, {"type": "Feature", "properties": {"norad_id": 33320, "name": "HUANJING 1A (HJ-1A)", "group": "resource", "lat": 81.54021678847582, "lon": -139.1712502909989, "alt_km": 604.7468451965287, "timestamp": "2025-12-13T20:38:50.651465+00:00", "meta": {"OBJECT_NAME": "HUANJING 1A (HJ-1A)", "OBJECT_ID": "2008-041A", "EPOCH": "2025-12-13T07:16:38.373888", "MEAN_MOTION": 14.83398099, "ECCENTRICITY": 0.00200719, "INCLINATION": 97.6544, "RA_OF_ASC_NODE": 335.5783, "ARG_OF_PERICENTER": 32.5253, "MEAN_ANOMALY": 327.7194, "EPHEMERIS_TYPE": 0, "CLASSIFICATION_TYPE": "U", "NORAD_CAT_ID": 33320, "ELEMENT_SET_NO": 999, "REV_AT_EPOCH": 93084, "BSTAR": 0.00032134814, "MEAN_MOTION_DOT": 2.595e-05, "MEAN_MOTION_DDOT": 0}, "tle": {"line1": "1 33320U 08041A   25347.30322192  .00002595  00000+0  32135-3 0  9994", "line2": "2 33320  97.6544 335.5783 0020071  32.5253 327.7194 14.83398099930843"}}, "geometry": {"type": "Point", "coordinates": [-139.1712502909989, 81.54021678847582]}}, {"type": "Feature", "properties": {"norad_id": 33321, "name": "HUANJING 1B (HJ-1B)", "group": "resource", "lat": -47.7190932567655, "lon": -11.70463604662124, "alt_km": 640.6566535378706, "timestamp": "2025-12-13T20:38:50.651479+00:00", "meta": {"OBJECT_NAME": "HUANJING 1B (HJ-1B)", "OBJECT_ID": "2008-041B", "EPOCH": "2025-12-13T06:17:21.259968", "MEAN_MOTION": 14.82824604, "ECCENTRICITY": 0.00381571, "INCLINATION": 97.6403, "RA_OF_ASC_NODE": 339.2345, "ARG_OF_PERICENTER": 74.047, "MEAN_ANOMALY": 286.4943, "EPHEMERIS_TYPE": 0, "CLASSIFICATION_TYPE": "U", "NORAD_CAT_ID": 33321, "ELEMENT_SET_NO": 999, "REV_AT_EPOCH": 93085, "BSTAR": 0.00032822487, "MEAN_MOTION_DOT": 2.638e-05, "MEAN_MOTION_DDOT": 0}, "tle": {"line1": "1 33321U 08041B   25347.26205162  .00002638  00000+0  32822-3 0  9998", "line2": "2 33321  97.6403 339.2345 0038157  74.0470 286.4943 14.82824604930858"}}, "geometry": {"type": "Point", "coordinates": [-11.70463604662124, -47.7190932567655]}}, {"type": "Feature", "properties": {"norad_id": 33331, "name": "GEOEYE 1", "group": "resource", "lat": -45.355317091544386, "lon": -129.18986392277088, "alt_km": 683.0734789268445, "timestamp": "2025-12-13T20:38:50.651491+00:00", "meta": {"OBJECT_NAME": "GEOEYE 1", "OBJECT_ID": "2008-042A", "EPOCH": "2025-12-13T06:30:13.972320", "MEAN_MOTION": 14.64814364, "ECCENTRICITY": 0.00027313, "INCLINATION": 98.1252, "RA_OF_ASC_NODE": 58.5451, "ARG_OF_PERICENTER": 273.8714, "MEAN_ANOMALY": 86.2177, "EPHEMERIS_TYPE": 0, "CLASSIFICATION_TYPE": "U", "NORAD_CAT_ID": 33331, "ELEMENT_SET_NO": 999, "REV_AT_EPOCH": 92293, "BSTAR": 0.00020100289, "MEAN_MOTION_DOT": 1.025e-05, "MEAN_MOTION_DDOT": 0}, "tle": {"line1": "1 33331U 08042A   25347.27099505  .00001025  00000+0  20100-3 0  9998", "line2": "2 33331  98.1252  58.5451 0002731 273.8714  86.2177 14.64814364922932"}}, "geometry": {"type": "Point", "coordinates": [-129.18986392277088, -45.355317091544386]}}, {"type": "Feature", "properties": {"norad_id": 33396, "name": "THEOS", "group": "resource", "lat": -78.6635072524628, "lon": 177.01058866227334, "alt_km": 833.1724580945502, "timestamp": "2025-12-13T20:38:50.651502+00:00", "meta": {"OBJECT_NAME": "THEOS", "OBJECT_ID": "2008-049A", "EPOCH": "2025-12-13T07:34:40.304928", "MEAN_MOTION": 14.20096027, "ECCENTRICITY": 0.00011645, "INCLINATION": 98.5864, "RA_OF_ASC_NODE": 45.3879, "ARG_OF_PERICENTER": 95.6762, "MEAN_ANOMALY": 264.4547, "EPHEMERIS_TYPE": 0, "CLASSIFICATION_TYPE": "U", "NORAD_CAT_ID": 33396, "ELEMENT_SET_NO": 999, "REV_AT_EPOCH": 89158, "BSTAR": 1.7710308e-05, "MEAN_MOTION_DOT": -5e-08, "MEAN_MOTION_DDOT": 0}, "tle": {"line1": "1 33396U 08049A   25347.31574427 -.00000005  00000+0  17710-4 0  9994", "line2": "2 33396  98.5864  45.3879 0001164  95.6762 264.4547 14.20096027891583"}}, "geometry": {"type": "Point", "coordinates": [177.01058866227334, -78.6635072524628]}}, {"type": "Feature", "properties": {"norad_id": 33412, "name": "COSMO-SKYMED 3", "group": "resource", "lat": -26.47571524375844, "lon": -157.79085762925212, "alt_km": 566.8155079631424, "timestamp": "2025-12-13T20:38:50.651514+00:00", "meta": {"OBJECT_NAME": "COSMO-SKYMED 3", "OBJECT_ID": "2008-054A", "EPOCH": "2025-12-13T08:00:14.373216", "MEAN_MOTION": 15.05364359, "ECCENTRICITY": 0.00160788, "INCLINATION": 97.8473, "RA_OF_ASC_NODE": 197.7348, "ARG_OF_PERICENTER": 171.5785, "MEAN_ANOMALY": 188.5714, "EPHEMERIS_TYPE": 0, "CLASSIFICATION_TYPE": "U", "NORAD_CAT_ID": 33412, "ELEMENT_SET_NO": 999, "REV_AT_EPOCH": 92896, "BSTAR": 0.00043513291, "MEAN_MOTION_DOT": 6.189e-05, "MEAN_MOTION_DDOT": 0}, "tle": {"line1": "1 33412U 08054A   25347.33349969  .00006189  00000+0  43513-3 0  9999", "line2": "2 33412  97.8473 197.7348 0016078 171.5785 188.5714 15.05364359928967"}}, "geometry": {"type": "Point", "coordinates": [-157.79085762925212, -26.47571524375844]}}, {"type": "Feature", "properties": {"norad_id": 33446, "name": "YAOGAN-4", "group": "resource", "lat": -42.70333181996976, "lon": 90.56894810307472, "alt_km": 628.5585460603352, "timestamp": "2025-12-13T20:38:50.651525+00:00", "meta": {"OBJECT_NAME": "YAOGAN-4", "OBJECT_ID": "2008-061A", "EPOCH": "2025-12-13T06:41:08.234592", "MEAN_MOTION": 14.8268628, "ECCENTRICITY": 0.00135434, "INCLINATION": 97.9181, "RA_OF_ASC_NODE": 277.3727, "ARG_OF_PERICENTER": 321.4814, "MEAN_ANOMALY": 38.5431, "EPHEMERIS_TYPE": 0, "CLASSIFICATION_TYPE": "U", "NORAD_CAT_ID": 33446, "ELEMENT_SET_NO": 999, "REV_AT_EPOCH": 91811, "BSTAR": 0.00032331381, "MEAN_MOTION_DOT": 2.558e-05, "MEAN_MOTION_DDOT": 0}, "tle": {"line1": "1 33446U 08061A   25347.27856753  .00002558  00000+0  32331-3 0  9993", "line2": "2 33446  97.9181 277.3727 0013543 321.4814  38.5431 14.82686280918110"}}, "geometry": {"type": "Point", "coordinates": [90.56894810307472, -42.70333181996976]}}]}